NORAD_CAT_ID,OBJECT_NAME,OBJECT_TYPE,EPOCH,MEAN_MOTION,ECCENTRICITY,INCLINATION,RA_OF_ASC_NODE,ARG_OF_PERICENTER,MEAN_ANOMALY,BSTAR,MEAN_MOTION_DOT,MEAN_MOTION_DDOT,TLE_LINE0,TLE_LINE1,TLE_LINE2,SEMIMAJOR_AXIS,PERIOD,APOGEE,PERIGEE,DECAYED
53988.0,STARLINK-5113,PAYLOAD,2023-05-22 08:36:17,15.08837563,0.0001259,53.2174,123.6534,98.0691,262.0444,3.7515e-06,-2.28e-06,0.0,0 STARLINK-5113,1 53988U 22125AA  23142.35853381 -.00000228  00000-0  37515-5 0  9992,2 53988  53.2174 123.6534 0001259  98.0691 262.0444 15.08837563 35119,6917.888,95.438,540.624,538.882,0.0
53988.0,STARLINK-5113,PAYLOAD,2023-05-22 22:54:45,15.08844444,0.0001211,53.2176,120.9778,95.3086,264.8045,-4.9415e-05,-1.074e-05,0.0,0 STARLINK-5113,1 53988U 22125AA  23142.95469234 -.00001074  00000-0 -49415-4 0  9990,2 53988  53.2176 120.9778 0001211  95.3086 264.8045 15.08844444 35200,6917.867,95.437,540.57,538.894,0.0
53988.0,STARLINK-5113,PAYLOAD,2023-05-23 02:05:31,15.08843098,0.0001223,53.2174,120.3831,96.1454,263.9677,-3.3869e-05,-8.27e-06,0.0,0 STARLINK-5113,1 53988U 22125AA  23143.08717230 -.00000827  00000-0 -33869-4 0  9998,2 53988  53.2174 120.3831 0001223  96.1454 263.9677 15.08843098 35309,6917.871,95.437,540.582,538.89,0.0
53988.0,STARLINK-5113,PAYLOAD,2023-05-23 21:10:09,15.08836745,0.0001085,53.2168,116.8148,94.0309,266.0807,3.2359e-05,2.27e-06,0.0,0 STARLINK-5113,1 53988U 22125AA  23143.88205461  .00000227  00000-0  32359-4 0  9999,2 53988  53.2168 116.8148 0001085  94.0309 266.0807 15.08836745 35349,6917.89,95.438,540.506,539.005,0.0
53988.0,STARLINK-5113,PAYLOAD,2023-05-24 05:07:05,15.08831457,0.0001164,53.2169,115.3278,97.6063,262.5061,9.6407e-05,1.246e-05,0.0,0 STARLINK-5113,1 53988U 22125AA  23144.21325938  .00001246  00000-0  96407-4 0  9995,2 53988  53.2169 115.3278 0001164  97.6063 262.5061 15.08831457 35474,6917.907,95.438,540.577,538.966,0.0
53988.0,STARLINK-5113,PAYLOAD,2023-05-26 04:48:40,15.08835524,0.0001211,53.2173,106.4078,93.7705,266.3425,5.6463e-05,6.11e-06,0.0,0 STARLINK-5113,1 53988U 22125AA  23146.20046303  .00000611  00000-0  56463-4 0  9995,2 53988  53.2173 106.4078 0001211  93.7705 266.3425 15.08835524 35779,6917.894,95.438,540.597,538.921,0.0
53988.0,STARLINK-5113,PAYLOAD,2023-05-26 20:42:31,15.08838653,0.0001205,53.2173,103.4339,91.7466,268.3664,3.0595e-05,1.99e-06,0.0,0 STARLINK-5113,1 53988U 22125AA  23146.86286342  .00000199  00000-0  30595-4 0  9995,2 53988  53.2173 103.4339 0001205  91.7466 268.3664 15.08838653 35796,6917.885,95.438,540.583,538.916,0.0
53988.0,STARLINK-5113,PAYLOAD,2023-05-27 20:33:18,15.08840122,0.0001248,53.2175,98.9724,91.6461,268.4674,7.9449e-05,9.77e-06,0.0,0 STARLINK-5113,1 53988U 22125AA  23147.85646164  .00000977  00000-0  79449-4 0  9992,2 53988  53.2175  98.9724 0001248  91.6461 268.4674 15.08840122 36028,6917.88,95.438,540.608,538.882,0.0
53988.0,STARLINK-5113,PAYLOAD,2023-05-28 02:54:50,15.08844778,0.0001237,53.2171,97.7835,90.1625,269.9509,0.00011119,1.482e-05,0.0,0 STARLINK-5113,1 53988U 22125AA  23148.12141742  .00001482  00000-0  11119-3 0  9996,2 53988  53.2171  97.7835 0001237  90.1625 269.9509 15.08844778 35986,6917.866,95.437,540.587,538.875,0.0
53988.0,STARLINK-5113,PAYLOAD,2023-05-29 02:45:37,15.08842673,0.0001189,53.2168,93.3228,91.2884,268.8244,7.3162e-05,8.77e-06,0.0,0 STARLINK-5113,1 53988U 22125AA  23149.11501893  .00000877  00000-0  73162-4 0  9997,2 53988  53.2168  93.3228 0001189  91.2884 268.8244 15.08842673 36218,6917.872,95.437,540.56,538.915,0.0
53988.0,STARLINK-5113,PAYLOAD,2023-05-29 05:56:23,15.08844625,0.0001195,53.2169,92.728,91.0832,269.0297,8.4462e-05,1.057e-05,0.0,0 STARLINK-5113,1 53988U 22125AA  23149.24749700  .00001057  00000-0  84462-4 0  9998,2 53988  53.2169  92.7280 0001195  91.0832 269.0297 15.08844625 36151,6917.866,95.437,540.558,538.905,0.0
53988.0,STARLINK-5113,PAYLOAD,2023-05-30 02:36:25,15.08835796,0.0001167,53.217,88.8635,81.502,278.6104,-3.7613e-05,-8.86e-06,0.0,0 STARLINK-5113,1 53988U 22125AA  23150.10862772 -.00000886  00000-0 -37613-4 0  9997,2 53988  53.2170  88.8635 0001167  81.5020 278.6104 15.08835796 36360,6917.893,95.438,540.566,538.951,0.0
53988.0,STARLINK-5113,PAYLOAD,2023-05-30 05:47:11,15.08836445,0.000122,53.2173,88.2685,84.6818,275.4314,-3.1359e-05,-7.87e-06,0.0,0 STARLINK-5113,1 53988U 22125AA  23150.24110735 -.00000787  00000-0 -31359-4 0  9998,2 53988  53.2173  88.2685 0001220  84.6818 275.4314 15.08836445 36305,6917.891,95.438,540.6,538.912,0.0
53988.0,STARLINK-5113,PAYLOAD,2023-05-31 00:51:48,15.08846596,0.0001118,53.2174,84.701,76.4473,283.6644,5.1194e-05,5.27e-06,0.0,0 STARLINK-5113,1 53988U 22125AA  23151.03597876  .00000527  00000-0  51194-4 0  9990,2 53988  53.2174  84.7010 0001118  76.4473 283.6644 15.08846596 36508,6917.86,95.437,540.499,538.952,0.0
53988.0,STARLINK-5113,PAYLOAD,2023-05-31 05:37:57,15.08851689,0.0001108,53.2181,83.8071,80.8428,279.2689,0.00013163,1.808e-05,0.0,0 STARLINK-5113,1 53988U 22125AA  23151.23469260  .00001808  00000-0  13163-3 0  9993,2 53988  53.2181  83.8071 0001108  80.8428 279.2689 15.08851689 36454,6917.845,95.437,540.476,538.943,0.0
53988.0,STARLINK-5113,PAYLOAD,2023-05-31 19:56:27,15.08830411,8.51e-05,53.2179,81.1324,51.244,308.8628,2.2451e-05,7e-07,0.0,0 STARLINK-5113,1 53988U 22125AA  23151.83087082  .00000070  00000-0  22451-4 0  9998,2 53988  53.2179  81.1324 0000851  51.2440 308.8628 15.08830411 36545,6917.91,95.438,540.363,539.186,0.0
53988.0,STARLINK-5113,PAYLOAD,2023-06-01 02:17:59,15.08840083,0.0001149,53.2177,79.9433,82.5028,277.6095,9.4748e-05,1.22e-05,0.0,0 STARLINK-5113,1 53988U 22125AA  23152.09582343  .00001220  00000-0  94748-4 0  9993,2 53988  53.2177  79.9433 0001149  82.5028 277.6095 15.08840083 36669,6917.88,95.438,540.54,538.95,0.0
53988.0,STARLINK-5113,PAYLOAD,2023-06-01 05:28:45,15.08843927,0.0001158,53.218,79.3476,84.1975,275.9149,0.00013495,1.861e-05,0.0,0 STARLINK-5113,1 53988U 22125AA  23152.22830028  .00001861  00000-0  13495-3 0  9994,2 53988  53.2180  79.3476 0001158  84.1975 275.9149 15.08843927 36608,6917.868,95.437,540.534,538.932,0.0
53988.0,STARLINK-5113,PAYLOAD,2023-06-02 02:08:46,15.08847815,0.0001126,53.2176,75.4833,87.2582,272.8539,-2.0552e-05,-6.15e-06,0.0,0 STARLINK-5113,1 53988U 22125AA  23153.08942219 -.00000615  00000-0 -20552-4 0  9996,2 53988  53.2176  75.4833 0001126  87.2582 272.8539 15.08847815 36733,6917.857,95.437,540.5,538.943,0.0
53988.0,STARLINK-5113,PAYLOAD,2023-06-03 01:59:33,15.0883539,0.000114,53.2173,71.0234,107.2889,252.8228,2.7714e-05,1.53e-06,0.0,0 STARLINK-5113,1 53988U 22125AA  23154.08303148  .00000153  00000-0  27714-4 0  9991,2 53988  53.2173  71.0234 0001140 107.2889 252.8228 15.08835390 36969,6917.894,95.438,540.548,538.971,0.0
53988.0,STARLINK-5113,PAYLOAD,2023-06-03 03:34:57,15.08836472,0.000115,53.2173,70.726,108.6383,251.4734,3.7406e-05,3.07e-06,0.0,0 STARLINK-5113,1 53988U 22125AA  23154.14927094  .00000307  00000-0  37406-4 0  9990,2 53988  53.2173  70.7260 0001150 108.6383 251.4734 15.08836472 36890,6917.891,95.438,540.552,538.961,0.0
53988.0,STARLINK-5113,PAYLOAD,2023-06-04 01:50:20,15.08845006,0.000118,53.2176,66.5632,92.2346,267.8782,0.00011167,1.49e-05,0.0,0 STARLINK-5113,1 53988U 22125AA  23155.07662643  .00001490  00000-0  11167-3 0  9998,2 53988  53.2176  66.5632 0001180  92.2346 267.8782 15.08845006 37112,6917.865,95.437,540.546,538.914,0.0
53988.0,STARLINK-5113,PAYLOAD,2023-06-04 12:58:03,15.08835545,0.0001247,53.2181,64.4802,103.8155,256.2976,8.8961e-05,1.128e-05,0.0,0 STARLINK-5113,1 53988U 22125AA  23155.54031293  .00001128  00000-0  88961-4 0  9996,2 53988  53.2181  64.4802 0001247 103.8155 256.2976 15.08835545 37108,6917.894,95.438,540.622,538.896,0.0
53988.0,STARLINK-5113,PAYLOAD,2023-06-04 22:30:21,15.0883647,0.0001183,53.2183,62.6947,112.2172,247.8945,7.3039e-05,8.75e-06,0.0,0 STARLINK-5113,1 53988U 22125AA  23155.93775310  .00000875  00000-0  73039-4 0  9992,2 53988  53.2183  62.6947 0001183 112.2172 247.8945 15.08836470 37168,6917.891,95.438,540.575,538.938,0.0
53988.0,STARLINK-5113,PAYLOAD,2023-06-05 11:13:26,15.08841407,0.0001174,53.2177,60.3154,100.1547,259.9578,8.9938e-05,1.144e-05,0.0,0 STARLINK-5113,1 53988U 22125AA  23156.46767001  .00001144  00000-0  89938-4 0  9994,2 53988  53.2177  60.3154 0001174 100.1547 259.9578 15.08841407 37249,6917.876,95.437,540.553,538.929,0.0
53988.0,STARLINK-5113,PAYLOAD,2023-06-05 23:56:31,15.08849558,0.0001218,53.2181,57.9379,90.8145,269.2987,4.9423e-05,4.99e-06,0.0,0 STARLINK-5113,1 53988U 22125AA  23156.99758609  .00000499  00000-0  49423-4 0  9993,2 53988  53.2181  57.9379 0001218  90.8145 269.2987 15.08849558 37404,6917.851,95.437,540.559,538.874,0.0
53988.0,STARLINK-5113,PAYLOAD,2023-06-06 12:39:36,15.08843108,0.0001204,53.2179,55.5595,89.2279,270.8852,-2.282e-05,-6.51e-06,0.0,0 STARLINK-5113,1 53988U 22125AA  23157.52751048 -.00000651  00000-0 -22820-4 0  9997,2 53988  53.2179  55.5595 0001204  89.2279 270.8852 15.08843108 37404,6917.871,95.437,540.569,538.903,0.0
53988.0,STARLINK-5113,PAYLOAD,2023-06-06 19:01:09,15.08834257,0.0001075,53.2181,54.3702,91.0916,269.0199,2.2744e-05,7.4e-07,0.0,0 STARLINK-5113,1 53988U 22125AA  23157.79247580  .00000074  00000-0  22744-4 0  9999,2 53988  53.2181  54.3702 0001075  91.0916 269.0199 15.08834257 37442,6917.898,95.438,540.507,539.019,0.0
53988.0,STARLINK-5113,PAYLOAD,2023-06-07 02:58:04,15.08844929,0.0001072,53.2181,52.8827,84.1745,275.9369,4.7386e-05,4.67e-06,0.0,0 STARLINK-5113,1 53988U 22125AA  23158.12366868  .00000467  00000-0  47386-4 0  9993,2 53988  53.2181  52.8827 0001072  84.1745 275.9369 15.08844929 37490,6917.865,95.437,540.472,538.989,0.0
53988.0,STARLINK-5113,PAYLOAD,2023-06-07 20:27:20,15.08835332,9.91e-05,53.2183,49.6127,95.6021,264.5084,-1.2639e-05,-4.89e-06,0.0,0 STARLINK-5113,1 53988U 22125AA  23158.85231745 -.00000489  00000-0 -12639-4 0  9997,2 53988  53.2183  49.6127 0000991  95.6021 264.5084 15.08835332 37601,6917.895,95.438,540.445,539.074,0.0
